NORAD_CAT_ID,OBJECT_NAME,OBJECT_TYPE,EPOCH,MEAN_MOTION,ECCENTRICITY,INCLINATION,RA_OF_ASC_NODE,ARG_OF_PERICENTER,MEAN_ANOMALY,BSTAR,MEAN_MOTION_DOT,MEAN_MOTION_DDOT,TLE_LINE0,TLE_LINE1,TLE_LINE2,SEMIMAJOR_AXIS,PERIOD,APOGEE,PERIGEE,DECAYED
53702.0,STARLINK-4724,PAYLOAD,2024-05-11 20:04:15,15.08852201,0.000145,53.2172,342.6423,43.3795,316.7312,-0.00021511,-3.711e-05,0.0,0 STARLINK-4724,1 53702U 22107C   24132.83628906 -.00003711  00000-0 -21511-3 0  9990,2 53702  53.2172 342.6423 0001450  43.3795 316.7312 15.08852201 93641,6917.843,95.437,540.711,538.705,0.0
53702.0,STARLINK-4724,PAYLOAD,2024-05-11 21:39:39,15.08805233,0.0001089,53.2172,342.344,84.099,276.0127,-0.0014316,-0.00022977,0.0,0 STARLINK-4724,1 53702U 22107C   24132.90253603 -.00022977  00000-0 -14316-2 0  9995,2 53702  53.2172 342.3440 0001089  84.0990 276.0127 15.08805233 94437,6917.987,95.44,540.605,539.098,0.0
53702.0,STARLINK-4724,PAYLOAD,2024-05-12 07:11:59,15.08793294,0.0001205,53.2174,340.5603,80.47,279.6429,-0.0010754,-0.0001734,0.0,0 STARLINK-4724,1 53702U 22107C   24133.29999442 -.00017340  00000-0 -10754-2 0  9996,2 53702  53.2174 340.5603 0001205  80.4700 279.6429 15.08793294 94492,6918.023,95.441,540.722,539.055,0.0
53702.0,STARLINK-4724,PAYLOAD,2024-05-12 19:55:05,15.08824246,0.0001343,53.2172,338.1794,91.0326,269.082,-0.00011814,-2.167e-05,0.0,0 STARLINK-4724,1 53702U 22107C   24133.82992839 -.00002167  00000-0 -11814-3 0  9998,2 53702  53.2172 338.1794 0001343  91.0326 269.0820 15.08824246 93791,6917.929,95.439,540.723,538.864,0.0
53702.0,STARLINK-4724,PAYLOAD,2024-05-13 13:24:21,15.0882143,0.0001158,53.2174,334.9111,81.1242,278.9881,0.0010633,0.00016666,0.0,0 STARLINK-4724,1 53702U 22107C   24134.55858079  .00016666  00000-0  10633-2 0  9990,2 53702  53.2174 334.9111 0001158  81.1242 278.9881 15.08821430 94688,6917.937,95.439,540.603,539.001,0.0
53702.0,STARLINK-4724,PAYLOAD,2024-05-13 19:45:53,15.08833935,0.000116,53.217,333.7222,81.6747,278.4377,0.0010619,0.0001665,0.0,0 STARLINK-4724,1 53702U 22107C   24134.82353697  .00016650  00000-0  10619-2 0  9993,2 53702  53.2170 333.7222 0001160  81.6747 278.4377 15.08833935 93948,6917.899,95.438,540.566,538.961,0.0
53702.0,STARLINK-4724,PAYLOAD,2024-05-13 22:56:39,15.08842156,0.0001249,53.2171,333.1264,87.0432,273.0703,0.0010961,0.000172,0.0,0 STARLINK-4724,1 53702U 22107C   24134.95601483  .00017200  00000-0  10961-2 0  9998,2 53702  53.2171 333.1264 0001249  87.0432 273.0703 15.08842156 94746,6917.874,95.437,540.603,538.875,0.0
53702.0,STARLINK-4724,PAYLOAD,2024-05-14 19:36:39,15.08861203,0.0001498,53.2161,329.26,89.5046,270.6117,0.00040825,6.219e-05,0.0,0 STARLINK-4724,1 53702U 22107C   24135.81712185  .00006219  00000-0  40825-3 0  9997,2 53702  53.2161 329.2600 0001498  89.5046 270.6117 15.08861203 94879,6917.816,95.436,540.717,538.644,0.0
53702.0,STARLINK-4724,PAYLOAD,2024-05-14 22:47:25,15.08861688,0.0001363,53.2147,328.6648,88.1014,272.0135,0.00035915,5.436e-05,0.0,0 STARLINK-4724,1 53702U 22107C   24135.94959946  .00005436  00000-0  35915-3 0  9993,2 53702  53.2147 328.6648 0001363  88.1014 272.0135 15.08861688 94119,6917.814,95.436,540.622,538.736,0.0
53702.0,STARLINK-4724,PAYLOAD,2024-05-15 19:27:25,15.08855483,0.0001509,53.2181,324.8003,100.5645,259.5517,5.3454e-05,5.63e-06,0.0,0 STARLINK-4724,1 53702U 22107C   24136.81071382  .00000563  00000-0  53454-4 0  9994,2 53702  53.2181 324.8003 0001509 100.5645 259.5517 15.08855483 94245,6917.833,95.437,540.742,538.654,0.0
53702.0,STARLINK-4724,PAYLOAD,2024-05-16 12:56:40,15.08829631,0.0001011,53.2172,321.524,64.4469,295.6628,-0.00020493,-3.547e-05,0.0,0 STARLINK-4724,1 53702U 22107C   24137.53935904 -.00003547  00000-0 -20493-3 0  9996,2 53702  53.2172 321.5240 0001011  64.4469 295.6628 15.08829631 94354,6917.912,95.438,540.476,539.078,0.0
53702.0,STARLINK-4724,PAYLOAD,2024-05-16 19:18:12,15.08853698,0.0002389,53.2182,320.3405,91.9304,268.1962,0.00022442,3.287e-05,0.0,0 STARLINK-4724,1 53702U 22107C   24137.80431115  .00003287  00000-0  22442-3 0  9996,2 53702  53.2182 320.3405 0002389  91.9304 268.1962 15.08853698 94397,6917.839,95.437,541.356,538.051,0.0
53702.0,STARLINK-4724,PAYLOAD,2024-05-17 04:50:31,15.08845574,5.37e-05,53.2153,318.5555,55.6372,304.4671,0.00010616,1.403e-05,0.0,0 STARLINK-4724,1 53702U 22107C   24138.20175086  .00001403  00000-0  10616-3 0  9991,2 53702  53.2153 318.5555 0000537  55.6372 304.4671 15.08845574 94457,6917.863,95.437,540.1,539.357,0.0
53702.0,STARLINK-4724,PAYLOAD,2024-05-17 11:12:05,15.08824052,0.0002108,53.2184,317.3653,87.3489,272.7745,-0.0002,-3.469e-05,0.0,0 STARLINK-4724,1 53702U 22107C   24138.46672643 -.00003469  00000-0 -20000-3 0  9994,2 53702  53.2184 317.3653 0002108  87.3489 272.7745 15.08824052 94495,6917.929,95.439,541.252,538.336,0.0
53702.0,STARLINK-4724,PAYLOAD,2024-05-17 19:09:00,15.08828589,0.0001906,53.2179,315.8811,93.4228,266.6982,-8.9328e-05,-1.709e-05,0.0,0 STARLINK-4724,1 53702U 22107C   24138.79792621 -.00001709  00000-0 -89328-4 0  9993,2 53702  53.2179 315.8811 0001906  93.4228 266.6982 15.08828589 95329,6917.915,95.438,541.099,538.462,0.0
53702.0,STARLINK-4724,PAYLOAD,2024-05-18 04:41:19,15.0883593,0.0002095,53.2174,314.0956,87.0596,273.0636,0.00012595,1.717e-05,0.0,0 STARLINK-4724,1 53702U 22107C   24139.19536743  .00001717  00000-0  12595-3 0  9997,2 53702  53.2174 314.0956 0002095  87.0596 273.0636 15.08835930 94608,6917.893,95.438,541.207,538.309,0.0
53702.0,STARLINK-4724,PAYLOAD,2024-05-18 20:35:09,15.08878364,3.13e-05,53.2141,311.1201,97.8955,262.2072,0.0012298,0.00019359,0.0,0 STARLINK-4724,1 53702U 22107C   24139.85774997  .00019359  00000-0  12298-2 0  9995,2 53702  53.2141 311.1201 0000313  97.8955 262.2072 15.08878364 94705,6917.763,95.435,539.845,539.412,0.0
53702.0,STARLINK-4724,PAYLOAD,2024-05-19 04:32:06,15.08843109,0.0001432,53.2156,309.6347,92.8629,267.2527,-2.8128e-05,-7.36e-06,0.0,0 STARLINK-4724,1 53702U 22107C   24140.18895949 -.00000736  00000-0 -28128-4 0  9996,2 53702  53.2156 309.6347 0001432  92.8629 267.2527 15.08843109 94754,6917.871,95.437,540.727,538.745,0.0
53702.0,STARLINK-4724,PAYLOAD,2024-05-19 10:53:39,15.08839878,0.0002853,53.2144,308.4454,84.8171,275.3147,-2.6076e-05,-7.04e-06,0.0,0 STARLINK-4724,1 53702U 22107C   24140.45392665 -.00000704  00000-0 -26076-4 0  9998,2 53702  53.2144 308.4454 0002853  84.8171 275.3147 15.08839878 95575,6917.881,95.438,541.719,537.772,0.0
53702.0,STARLINK-4724,PAYLOAD,2024-05-19 20:25:58,15.08823442,0.000139,53.2148,306.6614,97.644,262.471,0.001538,0.00024263,0.0,0 STARLINK-4724,1 53702U 22107C   24140.85136938  .00024263  00000-0  15380-2 0  9999,2 53702  53.2148 306.6614 0001390  97.6440 262.4710 15.08823442 95633,6917.931,95.439,540.758,538.834,0.0
53702.0,STARLINK-4724,PAYLOAD,2024-05-20 20:16:44,15.08874339,0.0001325,53.2155,302.1997,95.0735,265.0409,0.0017865,0.00028285,0.0,0 STARLINK-4724,1 53702U 22107C   24141.84496350  .00028285  00000-0  17865-2 0  9994,2 53702  53.2155 302.1997 0001325  95.0735 265.0409 15.08874339 95009,6917.775,95.435,540.557,538.724,0.0
53702.0,STARLINK-4724,PAYLOAD,2024-05-21 13:45:59,15.0884711,0.0001346,53.2161,298.929,118.598,241.5148,0.0011178,0.0001755,0.0,0 STARLINK-4724,1 53702U 22107C   24142.57360661  .00017550  00000-0  11178-2 0  9994,2 53702  53.2161 298.9290 0001346 118.5980 241.5148 15.08847110 95893,6917.859,95.437,540.655,538.793,0.0
53702.0,STARLINK-4724,PAYLOAD,2024-05-21 16:56:45,15.08840395,9.84e-05,53.2161,298.3338,122.8679,237.2408,0.00098884,0.00015485,0.0,0 STARLINK-4724,1 53702U 22107C   24142.70608692  .00015485  00000-0  98884-3 0  9993,2 53702  53.2161 298.3338 0000984 122.8679 237.2408 15.08840395 95136,6917.879,95.438,540.425,539.063,0.0
53702.0,STARLINK-4724,PAYLOAD,2024-05-22 10:26:01,15.0883529,0.0001361,53.2176,295.0645,96.9164,263.1983,0.00074878,0.00011647,0.0,0 STARLINK-4724,1 53702U 22107C   24143.43473525  .00011647  00000-0  74878-3 0  9992,2 53702  53.2176 295.0645 0001361  96.9164 263.1983 15.08835290 95243,6917.895,95.438,540.701,538.818,0.0
53702.0,STARLINK-4724,PAYLOAD,2024-05-23 13:27:34,15.08847734,0.0001246,53.2175,290.0094,88.9722,271.1413,0.00042366,6.462e-05,0.0,0 STARLINK-4724,1 53702U 22107C   24144.56081387  .00006462  00000-0  42366-3 0  9994,2 53702  53.2175 290.0094 0001246  88.9722 271.1413 15.08847734 95410,6917.857,95.437,540.584,538.86,0.0
53702.0,STARLINK-4724,PAYLOAD,2024-05-23 15:02:57,15.08848594,0.0001263,53.2177,289.7124,88.1419,271.9718,0.00041752,6.365e-05,0.0,0 STARLINK-4724,1 53702U 22107C   24144.62705341  .00006365  00000-0  41752-3 0  9994,2 53702  53.2177 289.7124 0001263  88.1419 271.9718 15.08848594 96204,6917.854,95.437,540.593,538.845,0.0
53702.0,STARLINK-4724,PAYLOAD,2024-05-24 13:18:20,15.08851321,0.0001228,53.2184,285.5532,69.449,290.6634,0.00023939,3.525e-05,0.0,0 STARLINK-4724,1 53702U 22107C   24145.55440941  .00003525  00000-0  23939-3 0  9991,2 53702  53.2184 285.5532 0001228  69.4490 290.6634 15.08851321 95566,6917.846,95.437,540.56,538.861,0.0
53702.0,STARLINK-4724,PAYLOAD,2024-05-24 14:53:43,15.0885448,0.0001165,53.216,285.2507,75.1108,285.0014,0.00030985,4.649e-05,0.0,0 STARLINK-4724,1 53702U 22107C   24145.62064731  .00004649  00000-0  30985-3 0  9995,2 53702  53.2160 285.2507 0001165  75.1108 285.0014 15.08854480 96356,6917.836,95.437,540.507,538.895,0.0
53702.0,STARLINK-4724,PAYLOAD,2024-05-24 18:04:29,15.08866536,0.0001199,53.2173,284.6598,92.4278,267.6851,0.00051395,7.907e-05,0.0,0 STARLINK-4724,1 53702U 22107C   24145.75312119  .00007907  00000-0  51395-3 0  9993,2 53702  53.2173 284.6598 0001199  92.4278 267.6851 15.08866536 95595,6917.799,95.436,540.494,538.835,0.0
53702.0,STARLINK-4724,PAYLOAD,2024-05-25 13:09:08,15.0883346,0.0001239,53.2173,281.0926,100.7396,259.3735,-0.00014118,-2.534e-05,0.0,0 STARLINK-4724,1 53702U 22107C   24146.54801339 -.00002534  00000-0 -14118-3 0  9993,2 53702  53.2173 281.0926 0001239 100.7396 259.3735 15.08833460 95713,6917.9,95.438,540.623,538.908,0.0
